start=new Date('2022-04-29T00:00:00.000Z').valueOf();
sats=[{"EPHEMERIS_TYPE":"0","TLE_LINE1":"1 45180U 20012C   22118.77169001  .00017035  00000-0  11026-2 0  9996","FILE":"3420275","TIME_SYSTEM":"UTC","PERIAPSIS":"541.028","MEAN_ANOMALY":"162.6596","OBJECT_TYPE":"PAYLOAD","COUNTRY_CODE":"US","INCLINATION":"53.0520","REV_AT_EPOCH":"12153","RA_OF_ASC_NODE":"260.0681","NORAD_CAT_ID":"45180","MEAN_MOTION_DOT":"0.00017035","PERIOD":"95.473","SEMIMAJOR_AXIS":"6919.615","MEAN_MOTION_DDOT":"0.0000000000000","BSTAR":"0.00110260000000","CLASSIFICATION_TYPE":"U","CENTER_NAME":"EARTH","REF_FRAME":"TEME","GP_ID":"202225482","ECCENTRICITY":"0.00006530","ELEMENT_SET_NO":"999","ARG_OF_PERICENTER":"197.4371","EPOCH":"2022-04-28T18:31:14.016864","DECAY_DATE":null,"SITE":"AFETR","RCS_SIZE":"LARGE","APOAPSIS":"541.932","MEAN_MOTION":"15.08272763","OBJECT_ID":"2020-012C","TLE_LINE2":"2 45180  53.0520 260.0681 0000653 197.4371 162.6596 15.08272763121532","OBJECT_NAME":"STARLINK-1192","LAUNCH_DATE":"2020-02-17","MEAN_ELEMENT_THEORY":"SGP4"},{"EPOCH":"2022-04-28T17:40:41.737152","DECAY_DATE":null,"SITE":"AFETR","RCS_SIZE":"LARGE","APOAPSIS":"548.275","MEAN_MOTION":"15.06430470","OBJECT_ID":"2020-012D","TLE_LINE2":"2 45181  53.0555 260.6345 0001667  50.7085 309.4052 15.06430470121529","OBJECT_NAME":"STARLINK-1200","LAUNCH_DATE":"2020-02-17","MEAN_ELEMENT_THEORY":"SGP4","REV_AT_EPOCH":"12152","INCLINATION":"53.0555","RA_OF_ASC_NODE":"260.6345","NORAD_CAT_ID":"45181","MEAN_MOTION_DOT":"0.00012415","PERIOD":"95.590","SEMIMAJOR_AXIS":"6925.255","MEAN_MOTION_DDOT":"0.0000000000000","BSTAR":"0.00085018000000","CLASSIFICATION_TYPE":"U","REF_FRAME":"TEME","CENTER_NAME":"EARTH","GP_ID":"202225967","ELEMENT_SET_NO":"999","ECCENTRICITY":"0.00016670","ARG_OF_PERICENTER":"50.7085","FILE":"3420274","PERIAPSIS":"545.966","TIME_SYSTEM":"UTC","OBJECT_TYPE":"PAYLOAD","MEAN_ANOMALY":"309.4052","COUNTRY_CODE":"US","EPHEMERIS_TYPE":"0","TLE_LINE1":"1 45181U 20012D   22118.73659418  .00012415  00000-0  85018-3 0  9999"},{"TLE_LINE1":"1 45182U 20012E   22118.55783098  .00003771  00000-0  27191-3 0  9995","EPHEMERIS_TYPE":"0","FILE":"3420061","TIME_SYSTEM":"UTC","PERIAPSIS":"546.063","COUNTRY_CODE":"US","MEAN_ANOMALY":"297.0622","OBJECT_TYPE":"PAYLOAD","CLASSIFICATION_TYPE":"U","CENTER_NAME":"EARTH","REF_FRAME":"TEME","MEAN_MOTION_DDOT":"0.0000000000000","BSTAR":"0.00027191000000","ARG_OF_PERICENTER":"63.0537","GP_ID":"202214541","ELEMENT_SET_NO":"999","ECCENTRICITY":"0.00016600","RA_OF_ASC_NODE":"241.4456","REV_AT_EPOCH":"12227","INCLINATION":"53.0534","PERIOD":"95.592","SEMIMAJOR_AXIS":"6925.348","NORAD_CAT_ID":"45182","MEAN_MOTION_DOT":"0.00003771","OBJECT_NAME":"STARLINK-1201","TLE_LINE2":"2 45182  53.0534 241.4456 0001660  63.0537 297.0622 15.06400332122271","LAUNCH_DATE":"2020-02-17","MEAN_ELEMENT_THEORY":"SGP4","RCS_SIZE":"LARGE","EPOCH":"2022-04-28T13:23:16.596672","DECAY_DATE":null,"SITE":"AFETR","APOAPSIS":"548.362","MEAN_MOTION":"15.06400332","OBJECT_ID":"2020-012E"},{"EPHEMERIS_TYPE":"0","TLE_LINE1":"1 45183U 20012F   22118.57440913  .00002757  00000-0  20386-3 0  9996","TIME_SYSTEM":"UTC","PERIAPSIS":"545.568","FILE":"3420061","OBJECT_TYPE":"PAYLOAD","MEAN_ANOMALY":"284.9610","COUNTRY_CODE":"US","RA_OF_ASC_NODE":"261.3647","INCLINATION":"53.0540","REV_AT_EPOCH":"12215","MEAN_MOTION_DOT":"0.00002757","NORAD_CAT_ID":"45183","SEMIMAJOR_AXIS":"6925.322","PERIOD":"95.592","BSTAR":"0.00020386000000","MEAN_MOTION_DDOT":"0.0000000000000","REF_FRAME":"TEME","CENTER_NAME":"EARTH","CLASSIFICATION_TYPE":"U","ELEMENT_SET_NO":"999","ECCENTRICITY":"0.00023370","GP_ID":"202215790","ARG_OF_PERICENTER":"75.1638","SITE":"AFETR","DECAY_DATE":null,"EPOCH":"2022-04-28T13:47:08.948832","RCS_SIZE":"LARGE","MEAN_MOTION":"15.06408696","APOAPSIS":"548.805","OBJECT_ID":"2020-012F","TLE_LINE2":"2 45183  53.0540 261.3647 0002337  75.1638 284.9610 15.06408696122150","OBJECT_NAME":"STARLINK-1202","MEAN_ELEMENT_THEORY":"SGP4","LAUNCH_DATE":"2020-02-17"},{"FILE":"3420061","PERIAPSIS":"545.841","TIME_SYSTEM":"UTC","COUNTRY_CODE":"US","OBJECT_TYPE":"PAYLOAD","MEAN_ANOMALY":"304.4581","EPHEMERIS_TYPE":"0","TLE_LINE1":"1 45184U 20012G   22118.56520115  .00005920  00000-0  41586-3 0  9999","RCS_SIZE":"LARGE","EPOCH":"2022-04-28T13:33:53.379360","SITE":"AFETR","DECAY_DATE":null,"APOAPSIS":"548.500","MEAN_MOTION":"15.06414021","OBJECT_ID":"2020-012G","OBJECT_NAME":"STARLINK-1205","TLE_LINE2":"2 45184  53.0551 241.4017 0001920  55.6590 304.4581 15.06414021121467","LAUNCH_DATE":"2020-02-17","MEAN_ELEMENT_THEORY":"SGP4","INCLINATION":"53.0551","RA_OF_ASC_NODE":"241.4017","REV_AT_EPOCH":"12146","PERIOD":"95.591","SEMIMAJOR_AXIS":"6925.306","NORAD_CAT_ID":"45184","MEAN_MOTION_DOT":"0.00005920","CLASSIFICATION_TYPE":"U","CENTER_NAME":"EARTH","REF_FRAME":"TEME","MEAN_MOTION_DDOT":"0.0000000000000","BSTAR":"0.00041586000000","ARG_OF_PERICENTER":"55.6590","GP_ID":"202216042","ELEMENT_SET_NO":"999","ECCENTRICITY":"0.00019200"},{"LAUNCH_DATE":"2020-02-17","MEAN_ELEMENT_THEORY":"SGP4","TLE_LINE2":"2 45185  53.0537 261.3920 0001275  57.6365 302.4748 15.06408444122096","OBJECT_NAME":"STARLINK-1216","MEAN_MOTION":"15.06408444","APOAPSIS":"548.071","OBJECT_ID":"2020-012H","EPOCH":"2022-04-28T13:36:31.754880","SITE":"AFETR","DECAY_DATE":null,"RCS_SIZE":"LARGE","GP_ID":"202214291","ECCENTRICITY":"0.00012750","ELEMENT_SET_NO":"999","ARG_OF_PERICENTER":"57.6365","MEAN_MOTION_DDOT":"0.0000000000000","BSTAR":"0.00017789000000","CLASSIFICATION_TYPE":"U","REF_FRAME":"TEME","CENTER_NAME":"EARTH","NORAD_CAT_ID":"45185","MEAN_MOTION_DOT":"0.00002370","PERIOD":"95.592","SEMIMAJOR_AXIS":"6925.323","INCLINATION":"53.0537","RA_OF_ASC_NODE":"261.3920","REV_AT_EPOCH":"12209","OBJECT_TYPE":"PAYLOAD","MEAN_ANOMALY":"302.4748","COUNTRY_CODE":"US","FILE":"3420061","PERIAPSIS":"546.305","TIME_SYSTEM":"UTC","TLE_LINE1":"1 45185U 20012H   22118.56703420  .00002370  00000-0  17789-3 0  9996","EPHEMERIS_TYPE":"0"},{"APOAPSIS":"548.338","OBJECT_ID":"2020-012J","MEAN_MOTION":"15.06410098","RCS_SIZE":"LARGE","DECAY_DATE":null,"SITE":"AFETR","EPOCH":"2022-04-28T17:08:50.447328","MEAN_ELEMENT_THEORY":"SGP4","LAUNCH_DATE":"2020-02-17","OBJECT_NAME":"STARLINK-1224","TLE_LINE2":"2 45186  53.0556 260.7333 0001668  56.8371 303.2777 15.06410098121529","SEMIMAJOR_AXIS":"6925.318","PERIOD":"95.591","MEAN_MOTION_DOT":"0.00002173","NORAD_CAT_ID":"45186","INCLINATION":"53.0556","RA_OF_ASC_NODE":"260.7333","REV_AT_EPOCH":"12152","ARG_OF_PERICENTER":"56.8371","ELEMENT_SET_NO":"999","ECCENTRICITY":"0.00016680","GP_ID":"202225012","CENTER_NAME":"EARTH","REF_FRAME":"TEME","CLASSIFICATION_TYPE":"U","BSTAR":"0.00016466000000","MEAN_MOTION_DDOT":"0.0000000000000","COUNTRY_CODE":"US","MEAN_ANOMALY":"303.2777","OBJECT_TYPE":"PAYLOAD","PERIAPSIS":"546.027","TIME_SYSTEM":"UTC","FILE":"3420247","EPHEMERIS_TYPE":"0","TLE_LINE1":"1 45186U 20012J   22118.71447277  .00002173  00000-0  16466-3 0  9991"},{"REF_FRAME":"TEME","CENTER_NAME":"EARTH","CLASSIFICATION_TYPE":"U","BSTAR":"0.00000325120000","MEAN_MOTION_DDOT":"0.0000000000000","ARG_OF_PERICENTER":"56.0320","ECCENTRICITY":"0.00018290","ELEMENT_SET_NO":"999","GP_ID":"202215290","INCLINATION":"53.0570","RA_OF_ASC_NODE":"262.2067","REV_AT_EPOCH":"12211","SEMIMAJOR_AXIS":"6925.357","PERIOD":"95.592","MEAN_MOTION_DOT":"-0.00000233","NORAD_CAT_ID":"45187","OBJECT_NAME":"STARLINK-1225","TLE_LINE2":"2 45187  53.0570 262.2067 0001829  56.0320 304.0842 15.06397383122111","MEAN_ELEMENT_THEORY":"SGP4","LAUNCH_DATE":"2020-02-17","RCS_SIZE":"LARGE","SITE":"AFETR","DECAY_DATE":null,"EPOCH":"2022-04-28T09:16:28.243200","OBJECT_ID":"2020-012K","APOAPSIS":"548.488","MEAN_MOTION":"15.06397383","TLE_LINE1":"1 45187U 20012K   22118.38643800 -.00000233  00000-0  32512-5 0  9993","EPHEMERIS_TYPE":"0","PERIAPSIS":"545.955","TIME_SYSTEM":"UTC","FILE":"3420061","COUNTRY_CODE":"US","MEAN_ANOMALY":"304.0842","OBJECT_TYPE":"PAYLOAD"},{"RCS_SIZE":"LARGE","EPOCH":"2022-04-28T13:10:00.791328","SITE":"AFETR","DECAY_DATE":null,"APOAPSIS":"548.367","OBJECT_ID":"2020-012L","MEAN_MOTION":"15.06407129","OBJECT_NAME":"STARLINK-1228","TLE_LINE2":"2 45188  53.0545 221.4871 0001697  52.2884 307.8258 15.06407129122651","LAUNCH_DATE":"2020-02-17","MEAN_ELEMENT_THEORY":"SGP4","RA_OF_ASC_NODE":"221.4871","REV_AT_EPOCH":"12265","INCLINATION":"53.0545","PERIOD":"95.592","SEMIMAJOR_AXIS":"6925.327","NORAD_CAT_ID":"45188","MEAN_MOTION_DOT":"0.00004761","CLASSIFICATION_TYPE":"U","REF_FRAME":"TEME","CENTER_NAME":"EARTH","MEAN_MOTION_DDOT":"0.0000000000000","BSTAR":"0.00033822000000","ARG_OF_PERICENTER":"52.2884","GP_ID":"202215542","ELEMENT_SET_NO":"999","ECCENTRICITY":"0.00016970","FILE":"3420061","TIME_SYSTEM":"UTC","PERIAPSIS":"546.016","COUNTRY_CODE":"US","OBJECT_TYPE":"PAYLOAD","MEAN_ANOMALY":"307.8258","EPHEMERIS_TYPE":"0","TLE_LINE1":"1 45188U 20012L   22118.54862027  .00004761  00000-0  33822-3 0  9998"},{"TLE_LINE2":"2 45189  53.0541 261.5968 0001613  61.0500 299.0651 15.06407175119365","OBJECT_NAME":"STARLINK-1230","LAUNCH_DATE":"2020-02-17","MEAN_ELEMENT_THEORY":"SGP4","EPOCH":"2022-04-28T12:32:50.998272","SITE":"AFETR","DECAY_DATE":null,"RCS_SIZE":"LARGE","OBJECT_ID":"2020-012M","APOAPSIS":"548.309","MEAN_MOTION":"15.06407175","MEAN_MOTION_DDOT":"0.0000000000000","BSTAR":"0.00035002000000","CLASSIFICATION_TYPE":"U","CENTER_NAME":"EARTH","REF_FRAME":"TEME","GP_ID":"202214792","ECCENTRICITY":"0.00016130","ELEMENT_SET_NO":"999","ARG_OF_PERICENTER":"61.0500","RA_OF_ASC_NODE":"261.5968","INCLINATION":"53.0541","REV_AT_EPOCH":"11936","NORAD_CAT_ID":"45189","MEAN_MOTION_DOT":"0.00004937","PERIOD":"95.592","SEMIMAJOR_AXIS":"6925.327","FILE":"3420061","TIME_SYSTEM":"UTC","PERIAPSIS":"546.075","MEAN_ANOMALY":"299.0651","OBJECT_TYPE":"PAYLOAD","COUNTRY_CODE":"US","TLE_LINE1":"1 45189U 20012M   22118.52281248  .00004937  00000-0  35002-3 0  9994","EPHEMERIS_TYPE":"0"}];
